*******************************************************************************
 Revised: Mar 12, 2021             Io  / (Jupiter)                          501

 SATELLITE PHYSICAL PROPERTIES:
  Mean radius (km)       = 1821.49           Density (g cm^-3) = 3.528 +- 0.006
  GM (km^3/s^2)          = 5959.9155+- 0.004 Geometric Albedo  = 0.63  +- 0.02

 SATELLITE ORBIT (at J2000.0 epoch, 2000-Jan-1.5):
  Semi-major axis, a (km)~ 422,000           Orbital period    ~ 1.77 d
  Eccentricity, e        ~ 0.00472           Rotational period = Synchronous
  Inclination, i  (deg)  ~ 0.0375
*******************************************************************************


*******************************************************************************
Ephemeris / WWW_USER Fri Nov 26 17:04:11 2021 Pasadena, USA      / Horizons    
*******************************************************************************
Target body name: Io (501)                        {source: jup365_merged}
Center body name: Earth (399)                     {source: DE441}
Center-site name: GEOCENTRIC
*******************************************************************************
Start time      : A.D. 1970-Jan-01 00:00:00.0000 UT      
Stop  time      : A.D. 2050-Jan-01 00:00:00.0000 UT      
Step-size       : 43200 minutes
*******************************************************************************
Target pole/equ : IAU_IO                          {West-longitude positive}
Target radii    : 1829.4 x 1819.4 x 1815.7 km     {Equator, meridian, pole}    
Center geodetic : 0.00000000,0.00000000,0.0000000 {E-lon(deg),Lat(deg),Alt(km)}
Center cylindric: 0.00000000,0.00000000,0.0000000 {E-lon(deg),Dxy(km),Dz(km)}
Center pole/equ : ITRF93                          {East-longitude positive}
Center radii    : 6378.1 x 6378.1 x 6356.8 km     {Equator, meridian, pole}    
Target primary  : Jupiter
Vis. interferer : MOON (R_eq= 1737.400) km        {source: DE441}
Rel. light bend : Sun, EARTH                      {source: DE441}
Rel. lght bnd GM: 1.3271E+11, 3.9860E+05 km^3/s^2                              
Atmos refraction: NO (AIRLESS)
RA format       : DEG
Time format     : BOTH
EOP file        : eop.211125.p220216                                           
EOP coverage    : DATA-BASED 1962-JAN-20 TO 2021-NOV-25. PREDICTS-> 2022-FEB-15
Units conversion: 1 au= 149597870.700 km, c= 299792.458 km/s, 1 day= 86400.0 s 
Table cut-offs 1: Elevation (-90.0deg=NO ),Airmass (>38.000=NO), Daylight (NO )
Table cut-offs 2: Solar elongation (  0.0,180.0=NO ),Local Hour Angle( 0.0=NO )
Table cut-offs 3: RA/DEC angular rate (     0.0=NO )                           
*******************************************************************************
 Date__(UT)__HR:MN Date_________JDUT     N.Pole-RA  N.Pole-DC
*************************************************************
$$SOE
 2007-Oct-14 00:00 2454387.500000000     267.99305   64.52136
 2007-Nov-13 00:00 2454417.500000000     267.99665   64.52349
 2007-Dec-13 00:00 2454447.500000000     268.00061   64.52552
 2008-Jan-12 00:00 2454477.500000000     268.00491   64.52742
 2008-Feb-11 00:00 2454507.500000000     268.00954   64.52919
 2008-Mar-12 00:00 2454537.500000000     268.01447   64.53082
 2008-Apr-11 00:00 2454567.500000000     268.01967   64.53229
 2008-May-11 00:00 2454597.500000000     268.02513   64.53361
 2008-Jun-10 00:00 2454627.500000000     268.03081   64.53476
 2008-Jul-10 00:00 2454657.500000000     268.03669   64.53574
 2008-Aug-09 00:00 2454687.500000000     268.04274   64.53655
 2008-Sep-08 00:00 2454717.500000000     268.04892   64.53716
 2008-Oct-08 00:00 2454747.500000000     268.05522   64.53760
 2008-Nov-07 00:00 2454777.500000000     268.06159   64.53784
 2008-Dec-07 00:00 2454807.500000000     268.06802   64.53789
 2009-Jan-06 00:00 2454837.500000000     268.07445   64.53775
 2009-Feb-05 00:00 2454867.500000000     268.08087   64.53742
 2009-Mar-07 00:00 2454897.500000000     268.08725   64.53690
 2009-Apr-06 00:00 2454927.500000000     268.09354   64.53618
 2009-May-06 00:00 2454957.500000000     268.09973   64.53528
 2009-Jun-05 00:00 2454987.500000000     268.10577   64.53419
 2009-Jul-05 00:00 2455017.500000000     268.11165   64.53293
 2009-Aug-04 00:00 2455047.500000000     268.11732   64.53149
 2009-Sep-03 00:00 2455077.500000000     268.12277   64.52988
 2009-Oct-03 00:00 2455107.500000000     268.12796   64.52811
 2009-Nov-02 00:00 2455137.500000000     268.13288   64.52619
 2009-Dec-02 00:00 2455167.500000000     268.13749   64.52413
 2010-Jan-01 00:00 2455197.500000000     268.14177   64.52192
 2010-Jan-31 00:00 2455227.500000000     268.14570   64.51960
 2010-Mar-02 00:00 2455257.500000000     268.14927   64.51715
 2010-Apr-01 00:00 2455287.500000000     268.15244   64.51461
 2010-May-01 00:00 2455317.500000000     268.15522   64.51197
 2010-May-31 00:00 2455347.500000000     268.15757   64.50925
 2010-Jun-30 00:00 2455377.500000000     268.15950   64.50646
 2010-Jul-30 00:00 2455407.500000000     268.16099   64.50362
 2010-Aug-29 00:00 2455437.500000000     268.16203   64.50074
 2010-Sep-28 00:00 2455467.500000000     268.16261   64.49782
 2010-Oct-28 00:00 2455497.500000000     268.16273   64.49489
 2010-Nov-27 00:00 2455527.500000000     268.16240   64.49196
 2010-Dec-27 00:00 2455557.500000000     268.16160   64.48904
 2011-Jan-26 00:00 2455587.500000000     268.16035   64.48615
 2011-Feb-25 00:00 2455617.500000000     268.15865   64.48329
 2011-Mar-27 00:00 2455647.500000000     268.15650   64.48048
 2011-Apr-26 00:00 2455677.500000000     268.15392   64.47774
 2011-May-26 00:00 2455707.500000000     268.15091   64.47507
 2011-Jun-25 00:00 2455737.500000000     268.14749   64.47250
 2011-Jul-25 00:00 2455767.500000000     268.14368   64.47002
 2011-Aug-24 00:00 2455797.500000000     268.13948   64.46766
 2011-Sep-23 00:00 2455827.500000000     268.13493   64.46542
 2011-Oct-23 00:00 2455857.500000000     268.13004   64.46331
 2011-Nov-22 00:00 2455887.500000000     268.12483   64.46134
 2011-Dec-22 00:00 2455917.500000000     268.11932   64.45953
 2012-Jan-21 00:00 2455947.500000000     268.11355   64.45788
 2012-Feb-20 00:00 2455977.500000000     268.10754   64.45639
 2012-Mar-21 00:00 2456007.500000000     268.10132   64.45508
 2012-Apr-20 00:00 2456037.500000000     268.09491   64.45395
 2012-May-20 00:00 2456067.500000000     268.08834   64.45301
 2012-Jun-19 00:00 2456097.500000000     268.08165   64.45225
 2012-Jul-19 00:00 2456127.500000000     268.07486   64.45168
 2012-Aug-18 00:00 2456157.500000000     268.06801   64.45131
 2012-Sep-17 00:00 2456187.500000000     268.06112   64.45113
 2012-Oct-17 00:00 2456217.500000000     268.05424   64.45115
 2012-Nov-16 00:00 2456247.500000000     268.04739   64.45137
 2012-Dec-16 00:00 2456277.500000000     268.04060   64.45178
 2013-Jan-15 00:00 2456307.500000000     268.03390   64.45238
 2013-Feb-14 00:00 2456337.500000000     268.02733   64.45317
 2013-Mar-16 00:00 2456367.500000000     268.02092   64.45414
 2013-Apr-15 00:00 2456397.500000000     268.01469   64.45530
 2013-May-15 00:00 2456427.500000000     268.00867   64.45662
 2013-Jun-14 00:00 2456457.500000000     268.00289   64.45812
 2013-Jul-14 00:00 2456487.500000000     267.99738   64.45977
 2013-Aug-13 00:00 2456517.500000000     267.99216   64.46157
 2013-Sep-12 00:00 2456547.500000000     267.98725   64.46351
 2013-Oct-12 00:00 2456577.500000000     267.98268   64.46558
 2013-Nov-11 00:00 2456607.500000000     267.97847   64.46778
 2013-Dec-11 00:00 2456637.500000000     267.97463   64.47009
 2014-Jan-10 00:00 2456667.500000000     267.97118   64.47249
 2014-Feb-09 00:00 2456697.500000000     267.96814   64.47499
 2014-Mar-11 00:00 2456727.500000000     267.96552   64.47755
 2014-Apr-10 00:00 2456757.500000000     267.96334   64.48018
 2014-May-10 00:00 2456787.500000000     267.96159   64.48286
 2014-Jun-09 00:00 2456817.500000000     267.96028   64.48558
 2014-Jul-09 00:00 2456847.500000000     267.95943   64.48832
 2014-Aug-08 00:00 2456877.500000000     267.95903   64.49106
 2014-Sep-07 00:00 2456907.500000000     267.95908   64.49381
 2014-Oct-07 00:00 2456937.500000000     267.95959   64.49654
 2014-Nov-06 00:00 2456967.500000000     267.96053   64.49923
 2014-Dec-06 00:00 2456997.500000000     267.96192   64.50189
 2015-Jan-05 00:00 2457027.500000000     267.96375   64.50448
 2015-Feb-04 00:00 2457057.500000000     267.96599   64.50701
 2015-Mar-06 00:00 2457087.500000000     267.96864   64.50946
 2015-Apr-05 00:00 2457117.500000000     267.97168   64.51181
 2015-May-05 00:00 2457147.500000000     267.97510   64.51405
 2015-Jun-04 00:00 2457177.500000000     267.97887   64.51619
 2015-Jul-04 00:00 2457207.500000000     267.98299   64.51819
 2015-Aug-03 00:00 2457237.500000000     267.98742   64.52006
 2015-Sep-02 00:00 2457267.500000000     267.99214   64.52179
 2015-Oct-02 00:00 2457297.500000000     267.99714   64.52336
 2015-Nov-01 00:00 2457327.500000000     268.00237   64.52477
 2015-Dec-01 00:00 2457357.500000000     268.00782   64.52602
 2015-Dec-31 00:00 2457387.500000000     268.01346   64.52709
 2016-Jan-30 00:00 2457417.500000000     268.01925   64.52798
 2016-Feb-29 00:00 2457447.500000000     268.02517   64.52869
 2016-Mar-30 00:00 2457477.500000000     268.03119   64.52922
 2016-Apr-29 00:00 2457507.500000000     268.03728   64.52956
 2016-May-29 00:00 2457537.500000000     268.04340   64.52970
 2016-Jun-28 00:00 2457567.500000000     268.04952   64.52966
 2016-Jul-28 00:00 2457597.500000000     268.05562   64.52943
 2016-Aug-27 00:00 2457627.500000000     268.06165   64.52901
 2016-Sep-26 00:00 2457657.500000000     268.06760   64.52840
 2016-Oct-26 00:00 2457687.500000000     268.07342   64.52761
 2016-Nov-25 00:00 2457717.500000000     268.07910   64.52664
 2016-Dec-25 00:00 2457747.500000000     268.08459   64.52550
 2017-Jan-24 00:00 2457777.500000000     268.08988   64.52418
 2017-Feb-23 00:00 2457807.500000000     268.09493   64.52271
